NIMIQ 2                 
1 27632U 02062A   26064.12118793 -.00000074  00000+0  00000+0 0  9990
2 27632   9.2064  57.9757 0006548 290.5646 108.7493  1.00272607 43147
ANIK F2                 
1 28378U 04027A   26064.27595733 -.00000057  00000+0  00000+0 0  9991
2 28378   3.0163  80.8433 0003086 298.6662 131.7301  1.00272592 40227
ANIK F1R                
1 28868U 05036A   26064.20541035 -.00000082  00000+0  00000+0 0  9993
2 28868   4.0469  77.8820 0002983 302.5935 109.1208  1.00272287 45412
ANIK F3                 
1 31102U 07009A   26064.27448399 -.00000009  00000+0  00000+0 0  9995
2 31102   0.9291  85.1998 0002805 268.6266 149.2989  1.00273751 45525
NIMIQ 4                 
1 33373U 08044A   26064.21043704 -.00000229  00000+0  00000+0 0  9996
2 33373   0.0206 227.8269 0001994 127.2742 161.5861  1.00271144 63943
TELSTAR 11N             
1 34111U 09009A   26063.33794595 -.00000263  00000+0  00000+0 0  9990
2 34111   0.0202 137.5392 0002341 194.5952 274.0492  1.00271929 45199
TERRESTAR-1             
1 35496U 09035A   26063.94558728 -.00000064  00000+0  00000+0 0  9998
2 35496   5.0963  48.8340 0002936 301.3018  41.9564  1.00272209 61082
NIMIQ 5                 
1 35873U 09050A   26064.28358404 -.00000265  00000+0  00000+0 0  9994
2 35873   0.0509 270.2659 0002644  75.5087 206.6186  1.00272978 60305
SKYTERRA 1              
1 37218U 10061A   26064.02128403 -.00000125  00000+0  00000+0 0  9994
2 37218   4.9036  50.9134 0001602 298.5707  79.5975  1.00271547 56150
TELSTAR 14R             
1 37602U 11021A   26064.28549071 -.00000288  00000+0  00000+0 0  9994
2 37602   0.0308 260.6556 0002386  90.6268 211.5064  1.00272784 54796
NIMIQ 6                 
1 38342U 12026A   26064.20861703 -.00000182  00000+0  00000+0 0  9996
2 38342   0.0536 279.8613 0002605  61.7234 165.3467  1.00270915 49378
ANIK G1                 
1 39127U 13014A   26064.27673734 -.00000082  00000+0  00000+0 0  9997
2 39127   0.0531 269.9727 0002990  54.0545 191.2935  1.00271853 47219
TELSTAR 12V             
1 41036U 15068A   26064.18239259 -.00000128  00000+0  00000+0 0  9991
2 41036   0.0162 225.0347 0002414 124.9851 223.5541  1.00272472 37589
VIASAT-2                
1 42740U 17029A   26064.07020973 -.00000274  00000+0  00000+0 0  9994
2 42740   0.0216 241.0889 0000570 139.0997  97.9902  1.00271692 32166
LEO 1 (LEO VANTAGE 1)   
1 43113U 18004C   26064.20536924  .00005786  00000+0  40102-3 0  9999
2 43113  99.2481 328.9433 0353292  38.6276 323.9637 14.67131464422238
TELSTAR 19V             
1 43562U 18059A   26064.28549071 -.00000288  00000+0  00000+0 0  9994
2 43562   0.0203 164.4510 0000660 261.3517 136.9810  1.00271665 28102
TELSTAR 18V             
1 43611U 18069A   26064.22822530 -.00000303  00000+0  00000+0 0  9996
2 43611   0.0180 200.6490 0002073 146.0140  36.4533  1.00271033 27588
