[{"OBJECT_NAME":"NIMIQ 2","OBJECT_ID":"2002-062A","EPOCH":"2026-03-05T02:54:30.637152","MEAN_MOTION":1.00272607,"ECCENTRICITY":0.00065487,"INCLINATION":9.2064,"RA_OF_ASC_NODE":57.9757,"ARG_OF_PERICENTER":290.5646,"MEAN_ANOMALY":108.7493,"EPHEMERIS_TYPE":0,"CLASSIFICATION_TYPE":"U","NORAD_CAT_ID":27632,"ELEMENT_SET_NO":999,"REV_AT_EPOCH":4314,"BSTAR":0,"MEAN_MOTION_DOT":-7.4e-7,"MEAN_MOTION_DDOT":0},{"OBJECT_NAME":"ANIK F2","OBJECT_ID":"2004-027A","EPOCH":"2026-03-05T06:37:22.713312","MEAN_MOTION":1.00272592,"ECCENTRICITY":0.00030862,"INCLINATION":3.0163,"RA_OF_ASC_NODE":80.8433,"ARG_OF_PERICENTER":298.6662,"MEAN_ANOMALY":131.7301,"EPHEMERIS_TYPE":0,"CLASSIFICATION_TYPE":"U","NORAD_CAT_ID":28378,"ELEMENT_SET_NO":999,"REV_AT_EPOCH":4022,"BSTAR":0,"MEAN_MOTION_DOT":-5.7e-7,"MEAN_MOTION_DDOT":0},{"OBJECT_NAME":"ANIK F1R","OBJECT_ID":"2005-036A","EPOCH":"2026-03-05T04:55:47.454240","MEAN_MOTION":1.00272287,"ECCENTRICITY":0.00029833,"INCLINATION":4.0469,"RA_OF_ASC_NODE":77.882,"ARG_OF_PERICENTER":302.5935,"MEAN_ANOMALY":109.1208,"EPHEMERIS_TYPE":0,"CLASSIFICATION_TYPE":"U","NORAD_CAT_ID":28868,"ELEMENT_SET_NO":999,"REV_AT_EPOCH":4541,"BSTAR":0,"MEAN_MOTION_DOT":-8.2e-7,"MEAN_MOTION_DDOT":0},{"OBJECT_NAME":"ANIK F3","OBJECT_ID":"2007-009A","EPOCH":"2026-03-05T06:35:15.416736","MEAN_MOTION":1.00273751,"ECCENTRICITY":0.00028059,"INCLINATION":0.9291,"RA_OF_ASC_NODE":85.1998,"ARG_OF_PERICENTER":268.6266,"MEAN_ANOMALY":149.2989,"EPHEMERIS_TYPE":0,"CLASSIFICATION_TYPE":"U","NORAD_CAT_ID":31102,"ELEMENT_SET_NO":999,"REV_AT_EPOCH":4552,"BSTAR":0,"MEAN_MOTION_DOT":-9.0e-8,"MEAN_MOTION_DDOT":0},{"OBJECT_NAME":"NIMIQ 4","OBJECT_ID":"2008-044A","EPOCH":"2026-03-05T05:03:01.760256","MEAN_MOTION":1.00271144,"ECCENTRICITY":0.00019949,"INCLINATION":0.0206,"RA_OF_ASC_NODE":227.8269,"ARG_OF_PERICENTER":127.2742,"MEAN_ANOMALY":161.5861,"EPHEMERIS_TYPE":0,"CLASSIFICATION_TYPE":"U","NORAD_CAT_ID":33373,"ELEMENT_SET_NO":999,"REV_AT_EPOCH":6394,"BSTAR":0,"MEAN_MOTION_DOT":-2.29e-6,"MEAN_MOTION_DDOT":0},{"OBJECT_NAME":"TELSTAR 11N","OBJECT_ID":"2009-009A","EPOCH":"2026-03-04T08:06:38.530080","MEAN_MOTION":1.00271929,"ECCENTRICITY":0.00023413,"INCLINATION":0.0202,"RA_OF_ASC_NODE":137.5392,"ARG_OF_PERICENTER":194.5952,"MEAN_ANOMALY":274.0492,"EPHEMERIS_TYPE":0,"CLASSIFICATION_TYPE":"U","NORAD_CAT_ID":34111,"ELEMENT_SET_NO":999,"REV_AT_EPOCH":4519,"BSTAR":0,"MEAN_MOTION_DOT":-2.63e-6,"MEAN_MOTION_DDOT":0},{"OBJECT_NAME":"TERRESTAR-1","OBJECT_ID":"2009-035A","EPOCH":"2026-03-04T22:41:38.740992","MEAN_MOTION":1.00272209,"ECCENTRICITY":0.00029367,"INCLINATION":5.0963,"RA_OF_ASC_NODE":48.834,"ARG_OF_PERICENTER":301.3018,"MEAN_ANOMALY":41.9564,"EPHEMERIS_TYPE":0,"CLASSIFICATION_TYPE":"U","NORAD_CAT_ID":35496,"ELEMENT_SET_NO":999,"REV_AT_EPOCH":6108,"BSTAR":0,"MEAN_MOTION_DOT":-6.4e-7,"MEAN_MOTION_DDOT":0},{"OBJECT_NAME":"NIMIQ 5","OBJECT_ID":"2009-050A","EPOCH":"2026-03-05T06:48:21.661056","MEAN_MOTION":1.00272978,"ECCENTRICITY":0.00026444,"INCLINATION":0.0509,"RA_OF_ASC_NODE":270.2659,"ARG_OF_PERICENTER":75.5087,"MEAN_ANOMALY":206.6186,"EPHEMERIS_TYPE":0,"CLASSIFICATION_TYPE":"U","NORAD_CAT_ID":35873,"ELEMENT_SET_NO":999,"REV_AT_EPOCH":6030,"BSTAR":0,"MEAN_MOTION_DOT":-2.65e-6,"MEAN_MOTION_DDOT":0},{"OBJECT_NAME":"SKYTERRA 1","OBJECT_ID":"2010-061A","EPOCH":"2026-03-05T00:30:38.940192","MEAN_MOTION":1.00271547,"ECCENTRICITY":0.00016026,"INCLINATION":4.9036,"RA_OF_ASC_NODE":50.9134,"ARG_OF_PERICENTER":298.5707,"MEAN_ANOMALY":79.5975,"EPHEMERIS_TYPE":0,"CLASSIFICATION_TYPE":"U","NORAD_CAT_ID":37218,"ELEMENT_SET_NO":999,"REV_AT_EPOCH":5615,"BSTAR":0,"MEAN_MOTION_DOT":-1.25e-6,"MEAN_MOTION_DDOT":0},{"OBJECT_NAME":"TELSTAR 14R","OBJECT_ID":"2011-021A","EPOCH":"2026-03-05T06:51:06.397344","MEAN_MOTION":1.00272784,"ECCENTRICITY":0.00023865,"INCLINATION":0.0308,"RA_OF_ASC_NODE":260.6556,"ARG_OF_PERICENTER":90.6268,"MEAN_ANOMALY":211.5064,"EPHEMERIS_TYPE":0,"CLASSIFICATION_TYPE":"U","NORAD_CAT_ID":37602,"ELEMENT_SET_NO":999,"REV_AT_EPOCH":5479,"BSTAR":0,"MEAN_MOTION_DOT":-2.88e-6,"MEAN_MOTION_DDOT":0},{"OBJECT_NAME":"NIMIQ 6","OBJECT_ID":"2012-026A","EPOCH":"2026-03-05T05:00:24.511392","MEAN_MOTION":1.00270915,"ECCENTRICITY":0.00026059,"INCLINATION":0.0536,"RA_OF_ASC_NODE":279.8613,"ARG_OF_PERICENTER":61.7234,"MEAN_ANOMALY":165.3467,"EPHEMERIS_TYPE":0,"CLASSIFICATION_TYPE":"U","NORAD_CAT_ID":38342,"ELEMENT_SET_NO":999,"REV_AT_EPOCH":4937,"BSTAR":0,"MEAN_MOTION_DOT":-1.82e-6,"MEAN_MOTION_DDOT":0},{"OBJECT_NAME":"ANIK G1","OBJECT_ID":"2013-014A","EPOCH":"2026-03-05T06:38:30.106176","MEAN_MOTION":1.00271853,"ECCENTRICITY":0.00029901,"INCLINATION":0.0531,"RA_OF_ASC_NODE":269.9727,"ARG_OF_PERICENTER":54.0545,"MEAN_ANOMALY":191.2935,"EPHEMERIS_TYPE":0,"CLASSIFICATION_TYPE":"U","NORAD_CAT_ID":39127,"ELEMENT_SET_NO":999,"REV_AT_EPOCH":4721,"BSTAR":0,"MEAN_MOTION_DOT":-8.2e-7,"MEAN_MOTION_DDOT":0},{"OBJECT_NAME":"TELSTAR 12V","OBJECT_ID":"2015-068A","EPOCH":"2026-03-05T04:22:38.719776","MEAN_MOTION":1.00272472,"ECCENTRICITY":0.0002414,"INCLINATION":0.0162,"RA_OF_ASC_NODE":225.0347,"ARG_OF_PERICENTER":124.9851,"MEAN_ANOMALY":223.5541,"EPHEMERIS_TYPE":0,"CLASSIFICATION_TYPE":"U","NORAD_CAT_ID":41036,"ELEMENT_SET_NO":999,"REV_AT_EPOCH":3758,"BSTAR":0,"MEAN_MOTION_DOT":-1.28e-6,"MEAN_MOTION_DDOT":0},{"OBJECT_NAME":"VIASAT-2","OBJECT_ID":"2017-029A","EPOCH":"2026-03-05T01:41:06.120672","MEAN_MOTION":1.00271692,"ECCENTRICITY":5.707e-5,"INCLINATION":0.0216,"RA_OF_ASC_NODE":241.0889,"ARG_OF_PERICENTER":139.0997,"MEAN_ANOMALY":97.9902,"EPHEMERIS_TYPE":0,"CLASSIFICATION_TYPE":"U","NORAD_CAT_ID":42740,"ELEMENT_SET_NO":999,"REV_AT_EPOCH":3216,"BSTAR":0,"MEAN_MOTION_DOT":-2.74e-6,"MEAN_MOTION_DDOT":0},{"OBJECT_NAME":"LEO 1 (LEO VANTAGE 1)","OBJECT_ID":"2018-004C","EPOCH":"2026-03-05T04:55:43.902336","MEAN_MOTION":14.67131464,"ECCENTRICITY":0.03532927,"INCLINATION":99.2481,"RA_OF_ASC_NODE":328.9433,"ARG_OF_PERICENTER":38.6276,"MEAN_ANOMALY":323.9637,"EPHEMERIS_TYPE":0,"CLASSIFICATION_TYPE":"U","NORAD_CAT_ID":43113,"ELEMENT_SET_NO":999,"REV_AT_EPOCH":42223,"BSTAR":0.00040101709,"MEAN_MOTION_DOT":5.786e-5,"MEAN_MOTION_DDOT":0},{"OBJECT_NAME":"TELSTAR 19V","OBJECT_ID":"2018-059A","EPOCH":"2026-03-05T06:51:06.397344","MEAN_MOTION":1.00271665,"ECCENTRICITY":6.601e-5,"INCLINATION":0.0203,"RA_OF_ASC_NODE":164.451,"ARG_OF_PERICENTER":261.3517,"MEAN_ANOMALY":136.981,"EPHEMERIS_TYPE":0,"CLASSIFICATION_TYPE":"U","NORAD_CAT_ID":43562,"ELEMENT_SET_NO":999,"REV_AT_EPOCH":2810,"BSTAR":0,"MEAN_MOTION_DOT":-2.88e-6,"MEAN_MOTION_DDOT":0},{"OBJECT_NAME":"TELSTAR 18V","OBJECT_ID":"2018-069A","EPOCH":"2026-03-05T05:28:38.665920","MEAN_MOTION":1.00271033,"ECCENTRICITY":0.00020731,"INCLINATION":0.018,"RA_OF_ASC_NODE":200.649,"ARG_OF_PERICENTER":146.014,"MEAN_ANOMALY":36.4533,"EPHEMERIS_TYPE":0,"CLASSIFICATION_TYPE":"U","NORAD_CAT_ID":43611,"ELEMENT_SET_NO":999,"REV_AT_EPOCH":2758,"BSTAR":0,"MEAN_MOTION_DOT":-3.03e-6,"MEAN_MOTION_DDOT":0}]
